COSMOS 2433 (720)       
1 32275C 07052A   21349.99979167 -.00000001  00000-0  00000-0 0  3490
2 32275  66.0792  10.7582 0005320 253.7071  27.4756  2.13104383    16
COSMOS 2432 (719)       
1 32276C 07052B   21349.99979167 -.00000001  00000-0  00000-0 0  3491
2 32276  66.0925  10.8561 0011182 315.4654 274.4974  2.13103609    15
COSMOS 2434 (721)       
1 32393C 07065A   21349.99979167 -.00000002  00000-0  00000-0 0  3496
2 32393  64.4179 247.6964 0003496  70.8820  99.2110  2.13103214    18
COSMOS 2436 (723)       
1 32395C 07065C   21349.99979167 -.00000002  00000-0  00000-0 0  3498
2 32395  64.4268 247.7516 0016282   2.2274 303.8565  2.13102795    13
COSMOS 2456 (730)       
1 36111C 09070A   21349.99979167  .00000002  00000-0  00000-0 0  3495
2 36111  64.3120 127.3543 0001874 328.9251   9.3193  2.13099302    10
COSMOS 2457 (733)       
1 36112C 09070B   21349.99979167  .00000002  00000-0  00000-0 0  3496
2 36112  64.2950 127.2346 0006558 154.6038 309.4737  2.13101508    12
COSMOS 2459 (731)       
1 36400C 10007A   21349.99979167 -.00000001  00000-0  00000-0 0  3498
2 36400  65.9682   9.6220 0019549 359.0520 139.7496  2.13103956    12
COSMOS 2460 (732)       
1 36402C 10007C   21349.99979167 -.00000001  00000-0  00000-0 0  3490
2 36402  65.9551   9.5756 0002489 265.7462 179.7155  2.13106774    12
COSMOS 2464 (736)       
1 37139C 10041C   21346.99979167 -.00000002  00000-0  00000-0 0  3461
2 37139  64.0180 246.9668 0029530  10.9316 237.2531  2.13100675    13
COSMOS 2476 (744)       
1 37867C 11064A   21349.99979167  .00000002  00000-0  00000-0 0  3490
2 37867  64.6040 128.6388 0020181 231.6705  10.4655  2.13101961    11
COSMOS 2477 (745)       
1 37868C 11064B   21349.99979167  .00000002  00000-0  00000-0 0  3491
2 37868  64.6118 128.7015 0017618 231.7794 188.5930  2.13101833    17
COSMOS 2475 (743)       
1 37869C 11064C   21349.99979167  .00000002  00000-0  00000-0 0  3492
2 37869  64.6191 128.7080 0021074 252.8317 125.4166  2.13102003    18
COSMOS 2485 (747)       
1 39155C 13019A   21349.99979167  .00000002  00000-0  00000-0 0  3494
2 39155  64.7690 129.0272 0020788 227.3593  59.2330  2.13101971    14
COSMOS 2492 (754)       
1 39620C 14012A   21349.99979167 -.00000001  00000-0  00000-0 0  3495
2 39620  65.8426   9.2826 0014466 314.2705   6.9359  2.13103399    17
COSMOS 2500 (755)       
1 40001C 14032A   21349.99979167 -.00000001  00000-0  00000-0 0  3492
2 40001  65.7825   9.1575 0007937 219.9366 320.4153  2.13102610    14
COSMOS 2501 (702)       
1 40315C 14075A   21349.99979167 -.00000002  00000-0  00000-0 0  3498
2 40315  63.7269 247.6016 0016589 209.3553 138.1296  2.13101324    18
COSMOS 2514 (751)       
1 41330C 16008A   21349.99979167 -.00000001  00000-0  00000-0 0  3493
2 41330  65.5835   8.8948 0011863 223.1225 140.7205  2.13103008    16
COSMOS 2516 (753)       
1 41554C 16032A   21349.99979167 -.00000002  00000-0  00000-0 0  3499
2 41554  64.6945 247.6721 0006245 252.2072   7.8250  2.13102777    14
COSMOS 2522 (752)       
1 42939C 17055A   21349.99979167 -.00000002  00000-0  00000-0 0  3493
2 42939  64.1860 248.1674 0006464 250.4189 232.3021  2.13102214    15
COSMOS 2527 (756)       
1 43508C 18053A   21349.99979167  .00000002  00000-0  00000-0 0  3494
2 43508  64.9324 128.9890 0007424 216.4578 298.3830  2.13102642    12
COSMOS 2529 (757)       
1 43687C 18086A   21349.99979167 -.00000002  00000-0  00000-0 0  3499
2 43687  64.4007 248.4342 0008959 275.6219 162.6306  2.13102258    10
COSMOS 2534 (758)       
1 44299C 19030A   21349.99979167 -.00000002  00000-0  00000-0 0  3499
2 44299  64.4721 248.3019 0012199 294.5039 278.4464  2.13101922    12
COSMOS 2544 (759)       
1 44850C 19088A   21349.99979167  .00000002  00000-0  00000-0 0  3494
2 44850  64.9174 128.8451 0010633 254.1025 304.3406  2.13102427    18
COSMOS 2545 (760)       
1 45358C 20018A   21347.99979167 -.00000001  00000-0  00000-0 0  3479
2 45358  64.9189   9.7226 0011553 251.4919  62.3759  2.13102827    15
